[
  {
    "OBJECT_NAME": "STARLINK-32313",
    "OBJECT_ID": "24183U",
    "EPOCH": "2025-11-11T07:21:58.391712",
    "MEAN_MOTION": 15.3019641,
    "ECCENTRICITY": 0.0001152,
    "INCLINATION": 53.161,
    "RA_OF_ASC_NODE": 332.5838,
    "ARG_OF_PERICENTER": 95.1144,
    "MEAN_ANOMALY": 264.9988,
    "EPHEMERIS_TYPE": 0,
    "CLASSIFICATION_TYPE": "U",
    "NORAD_CAT_ID": 61527,
    "ELEMENT_SET_NO": 999,
    "REV_AT_EPOCH": 6152,
    "BSTAR": 0.00014689,
    "MEAN_MOTION_DOT": 3.993e-05,
    "MEAN_MOTION_DDOT": 0.0,
    "TLE_LINE1": "1 61527U 24183U   25315.30692583  .00003993  00000+0  14689-3 0  9995",
    "TLE_LINE2": "2 61527  53.1610 332.5838 0001152  95.1144 264.9988 15.30196410 61524",
    "COMMENT": "Grouped by shell and plane from TLE"
  },
  {
    "OBJECT_NAME": "STARLINK-32319",
    "OBJECT_ID": "24183V",
    "EPOCH": "2025-11-11T07:29:34.319328",
    "MEAN_MOTION": 15.30193434,
    "ECCENTRICITY": 0.000129,
    "INCLINATION": 53.162,
    "RA_OF_ASC_NODE": 332.6181,
    "ARG_OF_PERICENTER": 95.5885,
    "MEAN_ANOMALY": 264.5263,
    "EPHEMERIS_TYPE": 0,
    "CLASSIFICATION_TYPE": "U",
    "NORAD_CAT_ID": 61528,
    "ELEMENT_SET_NO": 999,
    "REV_AT_EPOCH": 6152,
    "BSTAR": 3.5026000000000007e-05,
    "MEAN_MOTION_DOT": 6.78e-06,
    "MEAN_MOTION_DDOT": 0.0,
    "TLE_LINE1": "1 61528U 24183V   25315.31220277  .00000678  00000+0  35026-4 0  9990",
    "TLE_LINE2": "2 61528  53.1620 332.6181 0001290  95.5885 264.5263 15.30193434 61522",
    "COMMENT": "Grouped by shell and plane from TLE"
  },
  {
    "OBJECT_NAME": "STARLINK-32261",
    "OBJECT_ID": "24183X",
    "EPOCH": "2025-11-11T07:06:46.918368",
    "MEAN_MOTION": 15.30189947,
    "ECCENTRICITY": 0.0001122,
    "INCLINATION": 53.1613,
    "RA_OF_ASC_NODE": 332.5362,
    "ARG_OF_PERICENTER": 91.3539,
    "MEAN_ANOMALY": 268.759,
    "EPHEMERIS_TYPE": 0,
    "CLASSIFICATION_TYPE": "U",
    "NORAD_CAT_ID": 61530,
    "ELEMENT_SET_NO": 999,
    "REV_AT_EPOCH": 6152,
    "BSTAR": 0.00010379,
    "MEAN_MOTION_DOT": 2.715e-05,
    "MEAN_MOTION_DDOT": 0.0,
    "TLE_LINE1": "1 61530U 24183X   25315.29637637  .00002715  00000+0  10379-3 0  9999",
    "TLE_LINE2": "2 61530  53.1613 332.5362 0001122  91.3539 268.7590 15.30189947 61524",
    "COMMENT": "Grouped by shell and plane from TLE"
  },
  {
    "OBJECT_NAME": "STARLINK-32358",
    "OBJECT_ID": "24183Y",
    "EPOCH": "2025-11-11T06:42:27.911808",
    "MEAN_MOTION": 15.301861,
    "ECCENTRICITY": 0.0001132,
    "INCLINATION": 53.1614,
    "RA_OF_ASC_NODE": 332.4303,
    "ARG_OF_PERICENTER": 82.9353,
    "MEAN_ANOMALY": 277.1776,
    "EPHEMERIS_TYPE": 0,
    "CLASSIFICATION_TYPE": "U",
    "NORAD_CAT_ID": 61531,
    "ELEMENT_SET_NO": 999,
    "REV_AT_EPOCH": 6152,
    "BSTAR": 0.00012405,
    "MEAN_MOTION_DOT": 3.315e-05,
    "MEAN_MOTION_DDOT": 0.0,
    "TLE_LINE1": "1 61531U 24183Y   25315.27948972  .00003315  00000+0  12405-3 0  9994",
    "TLE_LINE2": "2 61531  53.1614 332.4303 0001132  82.9353 277.1776 15.30186100 61529",
    "COMMENT": "Grouped by shell and plane from TLE"
  },
  {
    "OBJECT_NAME": "STARLINK-32572",
    "OBJECT_ID": "24209P",
    "EPOCH": "2025-11-11T05:37:11.172576",
    "MEAN_MOTION": 15.3020459,
    "ECCENTRICITY": 0.0001312,
    "INCLINATION": 53.1607,
    "RA_OF_ASC_NODE": 332.4232,
    "ARG_OF_PERICENTER": 17.5134,
    "MEAN_ANOMALY": 342.5912,
    "EPHEMERIS_TYPE": 0,
    "CLASSIFICATION_TYPE": "U",
    "NORAD_CAT_ID": 61952,
    "ELEMENT_SET_NO": 999,
    "REV_AT_EPOCH": 5676,
    "BSTAR": 0.0014245,
    "MEAN_MOTION_DOT": 0.00042077,
    "MEAN_MOTION_DDOT": 0.0,
    "TLE_LINE1": "1 61952U 24209P   25315.23415709  .00042077  00000+0  14245-2 0  9994",
    "TLE_LINE2": "2 61952  53.1607 332.4232 0001312  17.5134 342.5912 15.30204590 56763",
    "COMMENT": "Grouped by shell and plane from TLE"
  },
  {
    "OBJECT_NAME": "STARLINK-32585",
    "OBJECT_ID": "24209Q",
    "EPOCH": "2025-11-11T06:31:53.373792",
    "MEAN_MOTION": 15.30207396,
    "ECCENTRICITY": 0.0001237,
    "INCLINATION": 53.1593,
    "RA_OF_ASC_NODE": 332.6531,
    "ARG_OF_PERICENTER": 90.9707,
    "MEAN_ANOMALY": 269.1435,
    "EPHEMERIS_TYPE": 0,
    "CLASSIFICATION_TYPE": "U",
    "NORAD_CAT_ID": 61953,
    "ELEMENT_SET_NO": 999,
    "REV_AT_EPOCH": 5676,
    "BSTAR": 0.00099552,
    "MEAN_MOTION_DOT": 0.00029248,
    "MEAN_MOTION_DDOT": 0.0,
    "TLE_LINE1": "1 61953U 24209Q   25315.27214553  .00029248  00000+0  99552-3 0  9993",
    "TLE_LINE2": "2 61953  53.1593 332.6531 0001237  90.9707 269.1435 15.30207396 56760",
    "COMMENT": "Grouped by shell and plane from TLE"
  },
  {
    "OBJECT_NAME": "STARLINK-32574",
    "OBJECT_ID": "24209R",
    "EPOCH": "2025-11-11T06:47:05.042400",
    "MEAN_MOTION": 15.30213659,
    "ECCENTRICITY": 0.000122,
    "INCLINATION": 53.1589,
    "RA_OF_ASC_NODE": 332.7209,
    "ARG_OF_PERICENTER": 83.7774,
    "MEAN_ANOMALY": 276.3366,
    "EPHEMERIS_TYPE": 0,
    "CLASSIFICATION_TYPE": "U",
    "NORAD_CAT_ID": 61954,
    "ELEMENT_SET_NO": 999,
    "REV_AT_EPOCH": 5678,
    "BSTAR": 0.0003322,
    "MEAN_MOTION_DOT": 9.496e-05,
    "MEAN_MOTION_DDOT": 0.0,
    "TLE_LINE1": "1 61954U 24209R   25315.28269725  .00009496  00000+0  33220-3 0  9999",
    "TLE_LINE2": "2 61954  53.1589 332.7209 0001220  83.7774 276.3366 15.30213659 56789",
    "COMMENT": "Grouped by shell and plane from TLE"
  },
  {
    "OBJECT_NAME": "STARLINK-32583",
    "OBJECT_ID": "24209S",
    "EPOCH": "2025-11-11T06:22:45.913152",
    "MEAN_MOTION": 15.30215016,
    "ECCENTRICITY": 0.0001081,
    "INCLINATION": 53.1593,
    "RA_OF_ASC_NODE": 332.6114,
    "ARG_OF_PERICENTER": 88.3567,
    "MEAN_ANOMALY": 271.7558,
    "EPHEMERIS_TYPE": 0,
    "CLASSIFICATION_TYPE": "U",
    "NORAD_CAT_ID": 61955,
    "ELEMENT_SET_NO": 999,
    "REV_AT_EPOCH": 5678,
    "BSTAR": 0.00060448,
    "MEAN_MOTION_DOT": 0.00017594,
    "MEAN_MOTION_DDOT": 0.0,
    "TLE_LINE1": "1 61955U 24209S   25315.26580918  .00017594  00000+0  60448-3 0  9998",
    "TLE_LINE2": "2 61955  53.1593 332.6114 0001081  88.3567 271.7558 15.30215016 56786",
    "COMMENT": "Grouped by shell and plane from TLE"
  },
  {
    "OBJECT_NAME": "STARLINK-32273",
    "OBJECT_ID": "24209T",
    "EPOCH": "2025-11-11T07:18:50.292000",
    "MEAN_MOTION": 15.30202252,
    "ECCENTRICITY": 0.000168,
    "INCLINATION": 53.1612,
    "RA_OF_ASC_NODE": 332.1476,
    "ARG_OF_PERICENTER": 61.2346,
    "MEAN_ANOMALY": 298.8824,
    "EPHEMERIS_TYPE": 0,
    "CLASSIFICATION_TYPE": "U",
    "NORAD_CAT_ID": 61956,
    "ELEMENT_SET_NO": 999,
    "REV_AT_EPOCH": 5677,
    "BSTAR": 0.00024633,
    "MEAN_MOTION_DOT": 6.944e-05,
    "MEAN_MOTION_DDOT": 0.0,
    "TLE_LINE1": "1 61956U 24209T   25315.30474875  .00006944  00000+0  24633-3 0  9991",
    "TLE_LINE2": "2 61956  53.1612 332.1476 0001680  61.2346 298.8824 15.30202252 56778",
    "COMMENT": "Grouped by shell and plane from TLE"
  },
  {
    "OBJECT_NAME": "STARLINK-32359",
    "OBJECT_ID": "24209U",
    "EPOCH": "2025-11-11T06:13:38.969184",
    "MEAN_MOTION": 15.3020207,
    "ECCENTRICITY": 0.0001157,
    "INCLINATION": 53.1603,
    "RA_OF_ASC_NODE": 332.5727,
    "ARG_OF_PERICENTER": 76.5304,
    "MEAN_ANOMALY": 283.5825,
    "EPHEMERIS_TYPE": 0,
    "CLASSIFICATION_TYPE": "U",
    "NORAD_CAT_ID": 61957,
    "ELEMENT_SET_NO": 999,
    "REV_AT_EPOCH": 5678,
    "BSTAR": 0.00032041,
    "MEAN_MOTION_DOT": 9.143e-05,
    "MEAN_MOTION_DDOT": 0.0,
    "TLE_LINE1": "1 61957U 24209U   25315.25947881  .00009143  00000+0  32041-3 0  9994",
    "TLE_LINE2": "2 61957  53.1603 332.5727 0001157  76.5304 283.5825 15.30202070 56785",
    "COMMENT": "Grouped by shell and plane from TLE"
  },
  {
    "OBJECT_NAME": "STARLINK-32566",
    "OBJECT_ID": "24209V",
    "EPOCH": "2025-11-11T07:14:16.303776",
    "MEAN_MOTION": 15.30218482,
    "ECCENTRICITY": 0.0001329,
    "INCLINATION": 53.1624,
    "RA_OF_ASC_NODE": 332.1248,
    "ARG_OF_PERICENTER": 112.8806,
    "MEAN_ANOMALY": 247.2335,
    "EPHEMERIS_TYPE": 0,
    "CLASSIFICATION_TYPE": "U",
    "NORAD_CAT_ID": 61958,
    "ELEMENT_SET_NO": 999,
    "REV_AT_EPOCH": 5679,
    "BSTAR": 0.00088784,
    "MEAN_MOTION_DOT": 0.00026043,
    "MEAN_MOTION_DDOT": 0.0,
    "TLE_LINE1": "1 61958U 24209V   25315.30157759  .00026043  00000+0  88784-3 0  9991",
    "TLE_LINE2": "2 61958  53.1624 332.1248 0001329 112.8806 247.2335 15.30218482 56793",
    "COMMENT": "Grouped by shell and plane from TLE"
  },
  {
    "OBJECT_NAME": "STARLINK-32952",
    "OBJECT_ID": "25043Q",
    "EPOCH": "2025-11-11T01:53:39.839712",
    "MEAN_MOTION": 15.27600922,
    "ECCENTRICITY": 1.96e-05,
    "INCLINATION": 42.9984,
    "RA_OF_ASC_NODE": 332.8847,
    "ARG_OF_PERICENTER": 202.8438,
    "MEAN_ANOMALY": 157.2405,
    "EPHEMERIS_TYPE": 0,
    "CLASSIFICATION_TYPE": "U",
    "NORAD_CAT_ID": 63146,
    "ELEMENT_SET_NO": 999,
    "REV_AT_EPOCH": 3977,
    "BSTAR": 0.0011464000000000001,
    "MEAN_MOTION_DOT": 0.00031439,
    "MEAN_MOTION_DDOT": 0.0,
    "TLE_LINE1": "1 63146U 25043Q   25315.07893333  .00031439  00000+0  11464-2 0  9993",
    "TLE_LINE2": "2 63146  42.9984 332.8847 0000196 202.8438 157.2405 15.27600922 39770",
    "COMMENT": "Grouped by shell and plane from TLE"
  },
  {
    "OBJECT_NAME": "STARLINK-32936",
    "OBJECT_ID": "25043R",
    "EPOCH": "2025-11-11T01:57:22.069152",
    "MEAN_MOTION": 15.27594761,
    "ECCENTRICITY": 6.2e-05,
    "INCLINATION": 42.9965,
    "RA_OF_ASC_NODE": 332.9219,
    "ARG_OF_PERICENTER": 274.4857,
    "MEAN_ANOMALY": 85.5924,
    "EPHEMERIS_TYPE": 0,
    "CLASSIFICATION_TYPE": "U",
    "NORAD_CAT_ID": 63147,
    "ELEMENT_SET_NO": 999,
    "REV_AT_EPOCH": 3914,
    "BSTAR": 0.0011734,
    "MEAN_MOTION_DOT": 0.00032182,
    "MEAN_MOTION_DDOT": 0.0,
    "TLE_LINE1": "1 63147U 25043R   25315.08150543  .00032182  00000+0  11734-2 0  9990",
    "TLE_LINE2": "2 63147  42.9965 332.9219 0000620 274.4857  85.5924 15.27594761 39149",
    "COMMENT": "Grouped by shell and plane from TLE"
  }
]